#dP2024  9 18 18  0  0.00000000      96 __u+U IGS20 EXT  IAC
## 2332 324000.00000000   900.00000000 60571 0.7500000000000
+   53   G02G03G04G05G06G07G08G09G10G11G12G13G14G15G16G17G18
+        G19G20G21G22G23G24G25G26G27G28G29G30G31G32R01R02R03
+        R04R05R07R08R09R11R12R14R15R16R17R18R19R20R21R22R24
+        R25R26  0  0  0  0  0  0  0  0  0  0  0  0  0  0  0
+          0  0  0  0  0  0  0  0  0  0  0  0  0  0  0  0  0
++         7  6  8  7  7  7  7  7  7  8  7  8  7  7  7  7  7
++        10  7  8  8  7  8  7  8  7  9  8  9  6  8  9  7  9
++         7  7  9  9  7  8  8  7  9  8  9  6  8  9  8  9 10
++         7  7  0  0  0  0  0  0  0  0  0  0  0  0  0  0  0
++         0  0  0  0  0  0  0  0  0  0  0  0  0  0  0  0  0
%c M  cc GPS ccc cccc cccc cccc cccc ccccc ccccc ccccc ccccc
%c cc cc ccc ccc cccc cccc cccc cccc ccccc ccccc ccccc ccccc
%f  0.0000000  0.000000000  0.00000000000  0.000000000000000
%f  0.0000000  0.000000000  0.00000000000  0.000000000000000
%i    0    0    0    0      0      0      0      0         0
%i    0    0    0    0      0      0      0      0         0
/* IAC                                ULTRA-RAPID PREDICTION
/* S/V CLOCKS ARE ALIGNED TO GNSS TIME                      
/* G:C1WC2W R:C1PC2P E:C1XC5X C:C2IC6I J:C1CC2S             
/* PCV:IGS20_2317 OL/AL:FES2004  NONE     YN ORB:CoN CLK:CoN
*  2024 09 18 22 30  0.00000000
PG02 -19503.196454 -13520.027567 -11788.006604   -355.226081
PG03 -12423.538666 -19285.906740  13312.198800    542.367211
PG04 -13015.256793  -8663.316867  21502.075784    446.186029
PG05   5109.529680  25977.001995   1416.703480   -187.037706
PG06 -16046.568992   7851.022951  19758.463254     21.552051
PG07 -25702.742880  -6283.920354  -3759.809028    -36.301155
PG08  -2904.551143 -16937.864164 -20251.939168    357.034966
PG09 -20101.530710   1823.777333  17201.307821    362.246620
PG10  11374.506728 -12405.262922 -20241.984440   -129.694419
PG11   -763.380113  15692.311275  21457.362200   -736.031905
PG12   9795.103635  22323.118101  10315.585587   -539.040331
PG13  -7019.495801  18672.014824 -17643.856047    677.193569
PG14 -13978.191324   8304.819832 -20921.000803    498.611825
PG15   5430.606979  16722.479633 -20386.511058    205.845423
PG16    894.713360 -25796.493899   4813.032953   -177.416647
PG17 -22368.838417  14014.485384  -3274.929664    622.756663
PG18  25497.643396   5661.289081  -5428.217578   -654.088879
PG19 -19538.049316  17063.972054   4374.756320    539.801698
PG20   -588.343373  23518.900738  12540.401181    370.503306
PG21 -15029.608961 -15284.211731 -15924.344576    101.489436
PG22 -10525.457318  16994.258058 -17226.265925    -63.164745
PG23  15262.308019   2094.388438 -21635.897342    323.140164
PG24  17372.468948  15035.065196 -14114.485754   -486.561805
PG25  15492.851977  11593.560736  17965.287429    499.627455
PG26   6886.462335 -19810.429833  15913.451177     75.852273
PG27   8079.101527 -20596.683803 -14668.547648    -33.880520
PG28  17883.539395  -7542.779129  18120.665697   -416.050313
PG29  18775.029639   2164.665423  18671.682712   -576.975778
PG30 -22830.353315   2407.595134 -13428.758456   -318.760769
PG31   6408.430188 -13854.964092  21514.135551   -224.531447
PG32  21052.407125 -15725.169596  -2805.364781   -595.845567
PR01   1614.124073  16812.353706 -19117.953695     98.235209
PR02  11266.856516   1568.414365 -22785.554698    -24.720315
PR03  15445.433857 -15020.737678 -13563.610333    107.809329
PR04  11265.885481 -22710.545241   2752.690530    255.323306
PR05   1031.684247 -18396.581862  17629.937001    137.846249
PR07 -15503.671598  15458.482077  13171.406655     91.168829
PR08 -11002.258520  22852.021392  -2863.172110     -6.408635
PR09 -16917.100820 -13445.796340 -13599.825502    209.887195
PR11  -1023.808060  16058.087188 -19773.192791     11.493423
PR12  11791.044577  22340.318925  -3559.942637     45.004834
PR14  11507.633667  -2375.934013  22653.879837     26.936870
PR15    -22.955083 -17268.619261  18800.230817     75.741244
PR16 -11776.083003 -22326.409003   3825.872980     29.236462
PR17  23353.990234  -4625.912931  -9217.003606    123.194289
PR18  10680.544779  -9582.818522 -21060.521716    162.707040
PR19  -5165.245339 -10310.102575 -22747.380103   -291.857115
PR20 -23269.743093  -4819.767869  -9298.516641   -119.283696
PR21 -23650.604939   4090.719878   8583.797310   -135.606036
PR22  -9704.121725   9965.732162  21411.106743     43.597872
PR24  23685.933137   3709.928938   8770.968845    -72.572912
PR25 -23294.702689   4047.222641   9544.634983    -99.233009
PR26 -11545.525175  22695.012467  -1340.530488     32.336985
*  2024 09 18 22 45  0.00000000
PG02 -17964.160887 -13356.122712 -14074.975252   -355.218879
PG03 -12569.352655 -20687.865991  10889.260084    542.379077
PG04 -11143.073332 -10280.085218  21826.551206    446.192375
PG05   4801.298129  25701.598025   4275.880825   -187.038841
PG06 -18060.375481   7086.691387  18255.952102     21.528401
PG07 -25935.844630  -6621.213021   -967.015962    -36.297106
PG08  -1207.780872 -18409.841831 -19060.609363    357.046498
PG09 -18702.918839    284.847882  18785.983285    362.261140
PG10  11962.090656 -10059.685637 -21202.187734   -129.705637
PG11  -3086.770281  14861.022235  21832.048665   -736.035514
PG12   9719.982295  23412.111932   7719.964978   -539.042859
PG13  -8659.558934  19601.012072 -15763.628150    677.195362
PG14 -14502.810025   5922.958231 -21388.011509    498.619487
PG15   3966.496225  18342.959612 -19255.630269    205.849386
PG16   1272.636893 -25081.809400   7574.273869   -177.407544
PG17 -22058.624331  13476.055991  -6066.503888    622.746336
PG18  25869.131556   5993.393311  -2606.497497   -654.090767
PG19 -19986.878407  17056.788119   1509.661545    539.806085
PG20  -1367.073266  22167.506418  14745.105935    370.502944
PG21 -13093.336193 -14975.793303 -17684.077528    101.488757
PG22 -10926.560591  14902.046158 -18778.680931    -63.168105
PG23  15805.005699   4463.649066 -20894.493986    323.147695
PG24  15716.199977  14886.657574 -16098.591025   -486.561411
PG25  15797.591884  13590.610173  16275.043281    499.627464
PG26   7688.188489 -17997.495225  17626.604840     75.844500
PG27   9345.106298 -21468.841744 -12413.791486    -33.880590
PG28  19742.252173  -6855.074855  16382.274190   -416.062759
PG29  17092.196738   3608.443619  20002.809978   -576.973534
PG30 -24110.955739   1735.984402 -11148.377011   -318.754371
PG31   8763.071720 -13031.960859  21233.343466   -224.531034
PG32  20858.850763 -15185.643813  -5622.048688   -595.842218
PR01    747.500451  18876.229343 -17141.924230     98.236352
PR02   9948.083774   4086.211502 -23090.469055    -24.720344
PR03  14511.107523 -13435.246575 -16032.260584    107.809930
PR04  11170.959479 -22915.175303   -471.981607    255.324925
PR05   1863.069174 -20261.383385  15369.693358    137.846755
PR07 -14585.900609  13935.873044  15680.912031     91.169527
PR08 -10927.391791  23071.322140    349.031186     -6.408603
PR09 -17856.320160 -14634.086419 -10918.880244    209.889109
PR11  -2383.008480  13919.422811 -21224.595022     11.492566
PR12  11548.395837  21738.669601  -6683.764407     45.005203
PR14  13067.964920   -116.849414  21917.592396     26.936882
PR15   1255.536610 -15216.856099  20458.937431     75.740950
PR16 -11534.444199 -21690.779143   6949.539381     29.236766
PR17  24294.587688  -4854.961755  -6172.504076    123.197324
PR18  13185.859214  -9773.881761 -19493.327953    162.708753
PR19  -2323.460637 -10296.760273 -23217.505064   -291.858187
PR20 -21940.743960  -4628.435311 -12175.178199   -119.284248
PR21 -24512.371646   4315.552872   5497.506543   -135.608911
PR22 -12252.187349  10067.358174  20009.703034     43.589412
PR24  22424.028596   3635.631610  11650.237074    -72.574363
PR25 -24284.732240   4195.228060   6533.892040    -99.230599
PR26 -11385.257630  22739.743265   1880.583932     32.351193
EOF
